ONEWEB-0275             
1 48993U 21060AC  25140.47714891 -.00000001  00000+0 -36767-4 0  9990
2 48993  87.9021 307.0552 0001664  95.0371 265.0950 13.16593254187884
ONEWEB-0276             
1 48994U 21060AD  25140.51038490  .00000052  00000+0  10167-3 0  9999
2 48994  87.9019 307.0455 0001742 103.1694 256.9632 13.16595629187907
ONEWEB-0277             
1 48995U 21060AE  25140.44706513  .00000100  00000+0  22801-3 0  9992
2 48995  87.9017 307.0946 0001412 103.7007 256.4281 13.16594515187884
ONEWEB-0278             
1 48996U 21060AF  25140.51356354  .00000145  00000+0  34497-3 0  9998
2 48996  87.9018 307.0416 0002053  98.2895 261.8469 13.16593898188021
ONEWEB-0279             
1 48997U 21060AG  25140.44547592  .00000185  00000+0  44942-3 0  9997
2 48997  87.9018 307.0514 0001451  97.0333 263.0963 13.16594734187949
ONEWEB-0280             
1 48998U 21060AH  25140.53651634  .00000098  00000+0  22243-3 0  9994
2 48998  87.9023 307.0393 0001825 106.7284 253.4047 13.16595530187894
ONEWEB-0281             
1 48999U 21060AJ  25140.46606544  .00000060  00000+0  12430-3 0  9993
2 48999  87.9022 307.0515 0001738  89.2711 270.8619 13.16593386187955
ONEWEB-0282             
1 49000U 21060AK  25140.49613410 -.00000001  00000+0 -34995-4 0  9998
2 49000  87.9016 307.0606 0001711 101.2621 258.8702 13.16594815187934
